{
  "norad_id": 67314,
  "name": "STARLINK-36476",
  "history": [
    {
      "epoch": "2026-03-28T18:02:21.327936Z",
      "apogee_km": 483.8984581074028,
      "perigee_km": 482.0754574718185,
      "latitude_deg": 4.040652884784228e-05,
      "longitude_deg": 120.90259482893289,
      "height_km": 483.0361933655482,
      "semi_major_axis_km": 6861.12395778961,
      "eccentricity": 0.00013285,
      "inclination_deg": 43.0017,
      "raan_deg": 217.659,
      "arg_perigee_deg": 252.605,
      "mean_anomaly_deg": 107.4657,
      "mean_motion_rev_day": 15.27600752
    },
    {
      "epoch": "2026-03-29T01:53:09.013920Z",
      "apogee_km": 483.4060454762357,
      "perigee_km": 482.61564124467986,
      "latitude_deg": -1.3669700511137984e-05,
      "longitude_deg": 1.0334979391149486,
      "height_km": 482.3954402453526,
      "semi_major_axis_km": 6861.147843360457,
      "eccentricity": 5.76e-05,
      "inclination_deg": 43.0015,
      "raan_deg": 215.8109,
      "arg_perigee_deg": 8.4147,
      "mean_anomaly_deg": 351.6714,
      "mean_motion_rev_day": 15.27592775
    },
    {
      "epoch": "2026-03-30T01:25:29.440128Z",
      "apogee_km": 484.38544579612517,
      "perigee_km": 481.57334862956395,
      "latitude_deg": -1.1864990222834656e-05,
      "longitude_deg": 1.4414785230081004,
      "height_km": 482.67933246888566,
      "semi_major_axis_km": 6861.116397212844,
      "eccentricity": 0.00020493,
      "inclination_deg": 43.0036,
      "raan_deg": 210.2707,
      "arg_perigee_deg": 273.1672,
      "mean_anomaly_deg": 86.8945,
      "mean_motion_rev_day": 15.27603277
    },
    {
      "epoch": "2026-03-30T09:16:16.885056Z",
      "apogee_km": 483.7626447047287,
      "perigee_km": 482.3464947647353,
      "latitude_deg": 2.3672368261465477e-05,
      "longitude_deg": -118.42341521975624,
      "height_km": 483.0583294983735,
      "semi_major_axis_km": 6861.191569734731,
      "eccentricity": 0.0001032,
      "inclination_deg": 43.0006,
      "raan_deg": 208.4257,
      "arg_perigee_deg": 251.2684,
      "mean_anomaly_deg": 108.8056,
      "mean_motion_rev_day": 15.27578172
    },
    {
      "epoch": "2026-03-30T17:07:03.752832Z",
      "apogee_km": 483.84999282258013,
      "perigee_km": 482.1769698892067,
      "latitude_deg": 5.811396934174099e-05,
      "longitude_deg": 121.7136012519569,
      "height_km": 482.83784908994136,
      "semi_major_axis_km": 6861.150481355893,
      "eccentricity": 0.00012192,
      "inclination_deg": 43.0017,
      "raan_deg": 206.5802,
      "arg_perigee_deg": 266.7349,
      "mean_anomaly_deg": 93.3364,
      "mean_motion_rev_day": 15.27591894
    },
    {
      "epoch": "2026-03-31T15:05:15.119808Z",
      "apogee_km": 483.22823811288526,
      "perigee_km": 482.7163993577078,
      "latitude_deg": -3.721599665894122e-05,
      "longitude_deg": 146.09426979142594,
      "height_km": 482.9169908820722,
      "semi_major_axis_km": 6861.109318735296,
      "eccentricity": 3.73e-05,
      "inclination_deg": 43.0024,
      "raan_deg": 201.4106,
      "arg_perigee_deg": 228.7505,
      "mean_anomaly_deg": 131.3314,
      "mean_motion_rev_day": 15.27605641
    },
    {
      "epoch": "2026-04-01T08:20:58.585920Z",
      "apogee_km": 483.596802990186,
      "perigee_km": 482.4839200221504,
      "latitude_deg": 2.6092647177385328e-05,
      "longitude_deg": -117.60769873389809,
      "height_km": 483.1184664579415,
      "semi_major_axis_km": 6861.1773615061675,
      "eccentricity": 8.11e-05,
      "inclination_deg": 43.0022,
      "raan_deg": 197.3486,
      "arg_perigee_deg": 237.1503,
      "mean_anomaly_deg": 122.9271,
      "mean_motion_rev_day": 15.27582917
    },
    {
      "epoch": "2026-04-02T14:09:56.312640Z",
      "apogee_km": 483.9672279429851,
      "perigee_km": 481.88544410556915,
      "latitude_deg": -2.6867912036729504e-05,
      "longitude_deg": 146.9139169534795,
      "height_km": 482.34487300248776,
      "semi_major_axis_km": 6861.063336024277,
      "eccentricity": 0.00015171,
      "inclination_deg": 43.0034,
      "raan_deg": 190.3353,
      "arg_perigee_deg": 290.1528,
      "mean_anomaly_deg": 69.916,
      "mean_motion_rev_day": 15.27620998
    },
    {
      "epoch": "2026-04-03T15:16:26.768352Z",
      "apogee_km": 484.73046655826874,
      "perigee_km": 481.49058547648383,
      "latitude_deg": 1.1108153372942184e-05,
      "longitude_deg": 123.34409107882308,
      "height_km": 483.4791570364811,
      "semi_major_axis_km": 6861.247526017376,
      "eccentricity": 0.0002361,
      "inclination_deg": 43.0021,
      "raan_deg": 184.4235,
      "arg_perigee_deg": 248.5969,
      "mean_anomaly_deg": 111.4631,
      "mean_motion_rev_day": 15.27559485
    },
    {
      "epoch": "2026-04-04T13:14:38.913792Z",
      "apogee_km": 483.808234128991,
      "perigee_km": 482.1300075718318,
      "latitude_deg": -3.355155654962924e-05,
      "longitude_deg": 147.722259404891,
      "height_km": 482.7474673097998,
      "semi_major_axis_km": 6861.106120850412,
      "eccentricity": 0.0001223,
      "inclination_deg": 43.0018,
      "raan_deg": 179.2546,
      "arg_perigee_deg": 269.8913,
      "mean_anomaly_deg": 90.1798,
      "mean_motion_rev_day": 15.27606709
    },
    {
      "epoch": "2026-04-05T12:47:00.709440Z",
      "apogee_km": 484.38664918804534,
      "perigee_km": 481.81917321327455,
      "latitude_deg": 1.03486664962535e-05,
      "longitude_deg": 148.1256613382596,
      "height_km": 483.0792583068561,
      "semi_major_axis_km": 6861.23991120066,
      "eccentricity": 0.0001871,
      "inclination_deg": 43.0018,
      "raan_deg": 173.7155,
      "arg_perigee_deg": 261.0771,
      "mean_anomaly_deg": 98.9869,
      "mean_motion_rev_day": 15.27562028
    },
    {
      "epoch": "2026-04-06T04:28:34.381056Z",
      "apogee_km": 484.0822181151334,
      "perigee_km": 481.8800736350331,
      "latitude_deg": 3.5506858162927644e-05,
      "longitude_deg": -91.60128727036724,
      "height_km": 482.8558600766622,
      "semi_major_axis_km": 6861.118145875083,
      "eccentricity": 0.00016048,
      "inclination_deg": 43.002,
      "raan_deg": 170.0233,
      "arg_perigee_deg": 264.9121,
      "mean_anomaly_deg": 95.1548,
      "mean_motion_rev_day": 15.27602693
    },
    {
      "epoch": "2026-04-07T05:35:03.367968Z",
      "apogee_km": 484.1154961570546,
      "perigee_km": 481.8155173747364,
      "latitude_deg": 6.367367683676005e-06,
      "longitude_deg": -115.16205089643253,
      "height_km": 482.98445446523596,
      "semi_major_axis_km": 6861.102506765895,
      "eccentricity": 0.00016761,
      "inclination_deg": 43.0015,
      "raan_deg": 164.1145,
      "arg_perigee_deg": 257.856,
      "mean_anomaly_deg": 102.2104,
      "mean_motion_rev_day": 15.27607916
    },
    {
      "epoch": "2026-04-08T05:07:24.097440Z",
      "apogee_km": 484.0021647889289,
      "perigee_km": 482.10792688891433,
      "latitude_deg": -1.828774515303088e-05,
      "longitude_deg": -114.75416903530422,
      "height_km": 483.00909376419344,
      "semi_major_axis_km": 6861.192045838921,
      "eccentricity": 0.00013804,
      "inclination_deg": 43.0016,
      "raan_deg": 158.5755,
      "arg_perigee_deg": 259.2151,
      "mean_anomaly_deg": 100.8545,
      "mean_motion_rev_day": 15.27578013
    },
    {
      "epoch": "2026-04-09T20:21:18.865728Z",
      "apogee_km": 484.2610533601419,
      "perigee_km": 481.78417473946956,
      "latitude_deg": 1.743023097919424e-05,
      "longitude_deg": 5.925366896167855,
      "height_km": 482.7938766959991,
      "semi_major_axis_km": 6861.159614049806,
      "eccentricity": 0.0001805,
      "inclination_deg": 42.999,
      "raan_deg": 149.3444,
      "arg_perigee_deg": 270.2614,
      "mean_anomaly_deg": 89.8031,
      "mean_motion_rev_day": 15.27588844
    },
    {
      "epoch": "2026-04-10T12:02:52.507104Z",
      "apogee_km": 484.11175509362147,
      "perigee_km": 481.85581857890884,
      "latitude_deg": -2.735701473319034e-05,
      "longitude_deg": 126.19656970555006,
      "height_km": 482.8003630722801,
      "semi_major_axis_km": 6861.120786836264,
      "eccentricity": 0.0001644,
      "inclination_deg": 43.0039,
      "raan_deg": 145.6503,
      "arg_perigee_deg": 268.006,
      "mean_anomaly_deg": 92.0603,
      "mean_motion_rev_day": 15.27601811
    },
    {
      "epoch": "2026-04-11T10:01:04.268064Z",
      "apogee_km": 484.19405644434664,
      "perigee_km": 481.92162871248456,
      "latitude_deg": -6.493294997389582e-05,
      "longitude_deg": 150.57645068020543,
      "height_km": 482.8721020894175,
      "semi_major_axis_km": 6861.194842578415,
      "eccentricity": 0.0001656,
      "inclination_deg": 43.0004,
      "raan_deg": 140.4815,
      "arg_perigee_deg": 268.1185,
      "mean_anomaly_deg": 91.9476,
      "mean_motion_rev_day": 15.27577079
    },
    {
      "epoch": "2026-04-13T02:49:08.342688Z",
      "apogee_km": 483.6346945787309,
      "perigee_km": 482.4055868885389,
      "latitude_deg": -1.6904709940065892e-05,
      "longitude_deg": -112.71711998971624,
      "height_km": 482.75543761803874,
      "semi_major_axis_km": 6861.157140733634,
      "eccentricity": 8.957e-05,
      "inclination_deg": 43.0039,
      "raan_deg": 130.8805,
      "arg_perigee_deg": 273.8636,
      "mean_anomaly_deg": 86.2113,
      "mean_motion_rev_day": 15.2758967
    },
    {
      "epoch": "2026-04-14T18:03:03.105792Z",
      "apogee_km": 484.0679804139818,
      "perigee_km": 482.02472001228944,
      "latitude_deg": -3.2626540750287107e-06,
      "longitude_deg": 7.960720606919155,
      "height_km": 482.797786229987,
      "semi_major_axis_km": 6861.183350213136,
      "eccentricity": 0.0001489,
      "inclination_deg": 43.0019,
      "raan_deg": 121.6477,
      "arg_perigee_deg": 271.4333,
      "mean_anomaly_deg": 88.6348,
      "mean_motion_rev_day": 15.27580917
    }
  ]
}